NORAD_CAT_ID,OBJECT_NAME,OBJECT_TYPE,EPOCH,MEAN_MOTION,ECCENTRICITY,INCLINATION,RA_OF_ASC_NODE,ARG_OF_PERICENTER,MEAN_ANOMALY,BSTAR,MEAN_MOTION_DOT,MEAN_MOTION_DDOT,TLE_LINE0,TLE_LINE1,TLE_LINE2,SEMIMAJOR_AXIS,PERIOD,APOGEE,PERIGEE,DECAYED
49771.0,STARLINK-3201,PAYLOAD,2023-11-24 07:42:59,15.08880998,0.000151,53.2164,293.7258,88.2674,271.8491,0.0010491,0.00016467,0.0,0 STARLINK-3201,1 49771U 21115AZ  23328.32152483  .00016467  00000-0  10491-2 0  9995,2 49771  53.2164 293.7258 0001510  88.2674 271.8491 15.08880998109412,6917.755,95.435,540.665,538.575,0.0
49771.0,STARLINK-3201,PAYLOAD,2023-11-24 22:01:28,15.08849422,0.0001685,53.2175,291.0463,102.4954,257.6227,9.4626e-05,1.219e-05,0.0,0 STARLINK-3201,1 49771U 21115AZ  23328.91769003  .00001219  00000-0  94626-4 0  9995,2 49771  53.2175 291.0463 0001685 102.4954 257.6227 15.08849422109502,6917.852,95.437,540.882,538.551,0.0
49771.0,STARLINK-3201,PAYLOAD,2023-11-25 02:47:37,15.08849856,0.0001953,53.218,290.1484,109.0873,251.0331,0.00015763,2.222e-05,0.0,0 STARLINK-3201,1 49771U 21115AZ  23329.11640977  .00002222  00000-0  15763-3 0  9995,2 49771  53.2180 290.1484 0001953 109.0873 251.0331 15.08849856110644,6917.85,95.437,541.066,538.364,0.0
49771.0,STARLINK-3201,PAYLOAD,2023-11-25 04:23:00,15.08849011,0.0001648,53.218,289.8552,101.5536,258.5641,0.00012585,1.716e-05,0.0,0 STARLINK-3201,1 49771U 21115AZ  23329.18264981  .00001716  00000-0  12585-3 0  9995,2 49771  53.2180 289.8552 0001648 101.5536 258.5641 15.08849011109545,6917.853,95.437,540.858,538.578,0.0
49771.0,STARLINK-3201,PAYLOAD,2023-11-25 21:52:14,15.08867495,0.0001382,53.2165,286.5834,103.0649,257.0497,0.00056468,8.717e-05,0.0,0 STARLINK-3201,1 49771U 21115AZ  23329.91127969  .00008717  00000-0  56468-3 0  9996,2 49771  53.2165 286.5834 0001382 103.0649 257.0497 15.08867495109653,6917.796,95.436,540.617,538.705,0.0
49771.0,STARLINK-3201,PAYLOAD,2023-11-26 02:38:24,15.08832655,0.0001586,53.2181,285.6946,102.6071,257.5099,-0.00041998,-6.964e-05,0.0,0 STARLINK-3201,1 49771U 21115AZ  23330.11000549 -.00006964  00000-0 -41998-3 0  9990,2 49771  53.2181 285.6946 0001586 102.6071 257.5099 15.08832655110795,6917.903,95.438,540.865,538.671,0.0
49771.0,STARLINK-3201,PAYLOAD,2023-11-26 04:13:47,15.08830629,0.0001543,53.2177,285.3979,88.9861,271.1308,-0.00057405,-9.41e-05,0.0,0 STARLINK-3201,1 49771U 21115AZ  23330.17624461 -.00009410  00000-0 -57405-3 0  9990,2 49771  53.2177 285.3979 0001543  88.9861 271.1308 15.08830629109690,6917.909,95.438,540.841,538.707,0.0
49771.0,STARLINK-3201,PAYLOAD,2023-11-26 21:43:04,15.08806407,0.0001445,53.2179,282.1207,108.4964,251.6186,-0.00053619,-8.803e-05,0.0,0 STARLINK-3201,1 49771U 21115AZ  23330.90490792 -.00008803  00000-0 -53619-3 0  9997,2 49771  53.2179 282.1207 0001445 108.4964 251.6186 15.08806407109801,6917.983,95.44,540.848,538.848,0.0
49771.0,STARLINK-3201,PAYLOAD,2023-11-27 02:29:13,15.0880345,0.0001588,53.2179,281.2305,112.5553,247.5607,-0.00032157,-5.397e-05,0.0,0 STARLINK-3201,1 49771U 21115AZ  23331.10363267 -.00005397  00000-0 -32157-3 0  9995,2 49771  53.2179 281.2305 0001588 112.5553 247.5607 15.08803450110942,6917.992,95.44,540.956,538.759,0.0
49771.0,STARLINK-3201,PAYLOAD,2023-11-28 02:20:01,15.08945215,0.0001073,53.2176,276.7731,100.391,259.7203,0.0044891,0.00072095,0.0,0 STARLINK-3201,1 49771U 21115AZ  23332.09723420  .00072095  00000-0  44891-2 0  9999,2 49771  53.2176 276.7731 0001073 100.3910 259.7203 15.08945215111092,6917.559,95.431,540.166,538.682,0.0
49771.0,STARLINK-3201,PAYLOAD,2023-11-28 03:55:25,15.08775667,0.000267,53.2178,276.4782,132.839,227.2827,-0.0014653,-0.00023494,0.0,0 STARLINK-3201,1 49771U 21115AZ  23332.16348719 -.00023494  00000-0 -14653-2 0  9995,2 49771  53.2178 276.4782 0002670 132.8390 227.2827 15.08775667111109,6918.077,95.442,541.789,538.095,0.0
49771.0,STARLINK-3201,PAYLOAD,2023-11-28 19:49:16,15.08848857,0.0001548,53.2171,273.5056,90.5423,269.5747,0.00038493,5.845e-05,0.0,0 STARLINK-3201,1 49771U 21115AZ  23332.82588009  .00005845  00000-0  38493-3 0  9993,2 49771  53.2171 273.5056 0001548  90.5423 269.5747 15.08848857111207,6917.853,95.437,540.789,538.647,0.0
49771.0,STARLINK-3201,PAYLOAD,2023-11-29 03:46:12,15.08810433,0.0001727,53.2175,272.0193,82.1126,278.0062,-0.00099238,-0.00016034,0.0,0 STARLINK-3201,1 49771U 21115AZ  23333.15709117 -.00016034  00000-0 -99238-3 0  9993,2 49771  53.2175 272.0193 0001727  82.1126 278.0062 15.08810433111252,6917.971,95.439,541.03,538.641,0.0
49771.0,STARLINK-3201,PAYLOAD,2023-11-29 05:21:35,15.088134,0.0001669,53.2169,271.7193,79.2642,280.8538,-0.00065266,-0.00010653,0.0,0 STARLINK-3201,1 49771U 21115AZ  23333.22333046 -.00010653  00000-0 -65266-3 0  9990,2 49771  53.2169 271.7193 0001669  79.2642 280.8538 15.08813400111263,6917.962,95.439,540.981,538.672,0.0
49771.0,STARLINK-3201,PAYLOAD,2023-11-30 02:01:36,15.08877088,0.0001725,53.218,267.8566,87.6959,272.4231,0.0019253,0.00030517,0.0,0 STARLINK-3201,1 49771U 21115AZ  23334.08444540  .00030517  00000-0  19253-2 0  9990,2 49771  53.2180 267.8566 0001725  87.6959 272.4231 15.08877088111396,6917.767,95.435,540.825,538.439,0.0
49771.0,STARLINK-3201,PAYLOAD,2023-12-01 01:52:21,15.088704,0.0002497,53.2183,263.3944,153.2503,206.8618,0.00020017,2.901e-05,0.0,0 STARLINK-3201,1 49771U 21115AZ  23335.07802673  .00002901  00000-0  20017-3 0  9992,2 49771  53.2183 263.3944 0002497 153.2503 206.8618 15.08870400111540,6917.787,95.436,541.38,537.925,0.0
49771.0,STARLINK-3201,PAYLOAD,2023-12-01 05:03:08,15.08865421,0.0001313,53.2182,262.8004,102.4864,257.6275,0.00039475,6.004e-05,0.0,0 STARLINK-3201,1 49771U 21115AZ  23335.21051085  .00006004  00000-0  39475-3 0  9997,2 49771  53.2182 262.8004 0001313 102.4864 257.6275 15.08865421111564,6917.803,95.436,540.576,538.759,0.0
49771.0,STARLINK-3201,PAYLOAD,2023-12-01 22:32:22,15.0884867,0.0001603,53.2188,259.5195,101.5714,258.5458,0.00089204,0.00013941,0.0,0 STARLINK-3201,1 49771U 21115AZ  23335.93914961  .00013941  00000-0  89204-3 0  9990,2 49771  53.2188 259.5195 0001603 101.5714 258.5458 15.08848670110569,6917.854,95.437,540.828,538.61,0.0
49771.0,STARLINK-3201,PAYLOAD,2023-12-02 00:07:45,15.08864491,0.0002158,53.2178,259.232,123.6028,236.517,0.0014022,0.00022114,0.0,0 STARLINK-3201,1 49771U 21115AZ  23336.00538803  .00022114  00000-0  14022-2 0  9993,2 49771  53.2178 259.2320 0002158 123.6028 236.5170 15.08864491111684,6917.806,95.436,541.163,538.178,0.0
49771.0,STARLINK-3201,PAYLOAD,2023-12-02 01:43:08,15.08876555,0.0001417,53.2171,258.9368,88.3861,271.7293,0.0022304,0.00035423,0.0,0 STARLINK-3201,1 49771U 21115AZ  23336.07163007  .00035423  00000-0  22304-2 0  9999,2 49771  53.2171 258.9368 0001417  88.3861 271.7293 15.08876555110583,6917.769,95.435,540.614,538.653,0.0
49771.0,STARLINK-3201,PAYLOAD,2023-12-02 22:23:10,15.08829676,0.0001598,53.2173,255.067,125.3251,234.7891,0.00016415,2.325e-05,0.0,0 STARLINK-3201,1 49771U 21115AZ  23336.93275548  .00002325  00000-0  16415-3 0  9990,2 49771  53.2173 255.0670 0001598 125.3251 234.7891 15.08829676110714,6917.912,95.438,540.882,538.671,0.0
49771.0,STARLINK-3201,PAYLOAD,2023-12-03 01:33:56,15.08811765,0.0001344,53.2167,254.4659,110.7886,249.325,-0.00053614,-8.804e-05,0.0,0 STARLINK-3201,1 49771U 21115AZ  23337.06523800 -.00008804  00000-0 -53614-3 0  9994,2 49771  53.2167 254.4659 0001344 110.7886 249.3250 15.08811765111844,6917.967,95.439,540.761,538.902,0.0
49771.0,STARLINK-3201,PAYLOAD,2023-12-03 04:44:43,15.08818494,0.0001187,53.2166,253.8781,114.0104,246.1012,-0.00015874,-2.812e-05,0.0,0 STARLINK-3201,1 49771U 21115AZ  23337.19772103 -.00002812  00000-0 -15874-3 0  9999,2 49771  53.2166 253.8781 0001187 114.0104 246.1012 15.08818494110753,6917.946,95.439,540.632,538.99,0.0
49771.0,STARLINK-3201,PAYLOAD,2023-12-04 01:24:44,15.08842037,0.0001282,53.2162,250.0134,116.6533,243.4591,0.00090475,0.00014141,0.0,0 STARLINK-3201,1 49771U 21115AZ  23338.05884704  .00014141  00000-0  90475-3 0  9992,2 49771  53.2162 250.0134 0001282 116.6533 243.4591 15.08842037111999,6917.874,95.437,540.626,538.852,0.0
49771.0,STARLINK-3201,PAYLOAD,2023-12-05 02:50:53,15.08863073,0.0001304,53.216,245.2552,119.8298,240.2824,0.00067703,0.0001051,0.0,0 STARLINK-3201,1 49771U 21115AZ  23339.11867783  .00010510  00000-0  67703-3 0  9992,2 49771  53.2160 245.2552 0001304 119.8298 240.2824 15.08863073112151,6917.81,95.436,540.577,538.773,0.0
49771.0,STARLINK-3201,PAYLOAD,2023-12-05 17:09:21,15.08851748,0.0001422,53.2159,242.5769,115.8903,244.2236,0.00029454,4.404e-05,0.0,0 STARLINK-3201,1 49771U 21115AZ  23339.71483710  .00004404  00000-0  29454-3 0  9998,2 49771  53.2159 242.5769 0001422 115.8903 244.2236 15.08851748112246,6917.844,95.437,540.693,538.726,0.0
49771.0,STARLINK-3201,PAYLOAD,2023-12-06 02:41:41,15.08803767,0.0001042,53.2164,240.7988,97.9744,262.1366,-0.00087399,-0.00014156,0.0,0 STARLINK-3201,1 49771U 21115AZ  23340.11229125 -.00014156  00000-0 -87399-3 0  9991,2 49771  53.2164 240.7988 0001042  97.9744 262.1366 15.08803767112304,6917.991,95.44,540.577,539.135,0.0
49771.0,STARLINK-3201,PAYLOAD,2023-12-07 00:57:05,15.0885487,0.0001268,53.2167,236.6324,160.8721,199.2319,0.0010596,0.00016623,0.0,0 STARLINK-3201,1 49771U 21115AZ  23341.03964884  .00016623  00000-0  10596-2 0  9994,2 49771  53.2167 236.6324 0001268 160.8721 199.2319 15.08854870112444,6917.835,95.437,540.577,538.823,0.0
49771.0,STARLINK-3201,PAYLOAD,2023-12-07 16:50:57,15.08838566,7.23e-05,53.2176,233.6591,147.3526,212.7511,0.00025548,3.78e-05,0.0,0 STARLINK-3201,1 49771U 21115AZ  23341.70205318  .00003780  00000-0  25548-3 0  9992,2 49771  53.2176 233.6591 0000723 147.3526 212.7511 15.08838566112545,6917.885,95.438,540.25,539.25,0.0
49771.0,STARLINK-3201,PAYLOAD,2023-12-08 02:23:16,15.08837888,6.85e-05,53.218,231.8752,137.9237,222.1808,0.00021888,3.197e-05,0.0,0 STARLINK-3201,1 49771U 21115AZ  23342.09949454  .00003197  00000-0  21888-3 0  9996,2 49771  53.2180 231.8752 0000685 137.9237 222.1808 15.08837888111493,6917.887,95.438,540.226,539.278,0.0
